NORAD_CAT_ID,OBJECT_NAME,OBJECT_TYPE,EPOCH,MEAN_MOTION,ECCENTRICITY,INCLINATION,RA_OF_ASC_NODE,ARG_OF_PERICENTER,MEAN_ANOMALY,BSTAR,MEAN_MOTION_DOT,MEAN_MOTION_DDOT,TLE_LINE0,TLE_LINE1,TLE_LINE2,SEMIMAJOR_AXIS,PERIOD,APOGEE,PERIGEE,DECAYED
52491.0,STARLINK-3908,PAYLOAD,2024-05-12 09:27:09,15.08778552,0.0001208,53.2137,160.241,105.6757,254.4368,-0.001308,-0.00021009,0.0,0 STARLINK-3908,1 52491U 22049AS  24133.39386340 -.00021009  00000-0 -13080-2 0  9995,2 52491  53.2137 160.2410 0001208 105.6757 254.4368 15.08778552111968,6918.068,95.441,540.769,539.098,0.0
52491.0,STARLINK-3908,PAYLOAD,2024-05-12 18:59:29,15.08788097,0.0001186,53.214,158.4563,118.4042,241.707,-0.00068207,-0.00011111,0.0,0 STARLINK-3908,1 52491U 22049AS  24133.79130943 -.00011111  00000-0 -68207-3 0  9990,2 52491  53.2140 158.4563 0001186 118.4042 241.7070 15.08788097112026,6918.039,95.441,540.725,539.084,0.0
52491.0,STARLINK-3908,PAYLOAD,2024-05-13 10:53:21,15.08840363,0.0001507,53.215,155.4807,113.7014,246.4137,0.0015391,0.00024292,0.0,0 STARLINK-3908,1 52491U 22049AS  24134.45371538  .00024292  00000-0  15391-2 0  9998,2 52491  53.2150 155.4807 0001507 113.7014 246.4137 15.08840363111962,6917.879,95.438,540.787,538.702,0.0
52491.0,STARLINK-3908,PAYLOAD,2024-05-13 18:50:16,15.08859814,0.0001448,53.2152,153.9945,110.2026,249.9122,0.00085537,0.00013359,0.0,0 STARLINK-3908,1 52491U 22049AS  24134.78490850  .00013359  00000-0  85537-3 0  9995,2 52491  53.2152 153.9945 0001448 110.2026 249.9122 15.08859814112019,6917.82,95.436,540.687,538.683,0.0
52491.0,STARLINK-3908,PAYLOAD,2024-05-14 07:33:20,15.08872454,0.0001421,53.2156,151.6158,110.9112,249.2033,0.00077309,0.00012048,0.0,0 STARLINK-3908,1 52491U 22049AS  24135.31481769  .00012048  00000-0  77309-3 0  9996,2 52491  53.2156 151.6158 0001421 110.9112 249.2033 15.08872454112095,6917.781,95.436,540.629,538.663,0.0
52491.0,STARLINK-3908,PAYLOAD,2024-05-14 18:41:01,15.0886814,0.0001569,53.217,149.5333,108.4679,251.6484,0.00042183,6.437e-05,0.0,0 STARLINK-3908,1 52491U 22049AS  24135.77849177  .00006437  00000-0  42183-3 0  9994,2 52491  53.2170 149.5333 0001569 108.4679 251.6484 15.08868140112325,6917.794,95.436,540.745,538.574,0.0
52491.0,STARLINK-3908,PAYLOAD,2024-05-15 05:48:43,15.08862625,0.0001637,53.216,147.4507,122.0951,238.02,0.00017172,2.448e-05,0.0,0 STARLINK-3908,1 52491U 22049AS  24136.24216654  .00002448  00000-0  17172-3 0  9993,2 52491  53.2160 147.4507 0001637 122.0951 238.0200 15.08862625112399,6917.811,95.436,540.809,538.544,0.0
52491.0,STARLINK-3908,PAYLOAD,2024-05-15 10:34:52,15.08863044,0.0001278,53.2161,146.5612,99.9335,260.1801,0.00030965,4.647e-05,0.0,0 STARLINK-3908,1 52491U 22049AS  24136.44088566  .00004647  00000-0  30965-3 0  9992,2 52491  53.2161 146.5612 0001278  99.9335 260.1801 15.08863044112261,6917.81,95.436,540.559,538.791,0.0
52491.0,STARLINK-3908,PAYLOAD,2024-05-16 05:39:30,15.08845264,0.0001428,53.2166,142.9925,102.9799,257.1353,-8.985e-05,-1.718e-05,0.0,0 STARLINK-3908,1 52491U 22049AS  24137.23576755 -.00001718  00000-0 -89850-4 0  9998,2 52491  53.2166 142.9925 0001428 102.9799 257.1353 15.08845264112542,6917.864,95.437,540.717,538.741,0.0
52491.0,STARLINK-3908,PAYLOAD,2024-05-16 07:14:53,15.08848368,0.0001255,53.2164,142.6947,95.7055,264.408,-9.3821e-05,-1.781e-05,0.0,0 STARLINK-3908,1 52491U 22049AS  24137.30200674 -.00001781  00000-0 -93821-4 0  9993,2 52491  53.2164 142.6947 0001255  95.7055 264.4080 15.08848368112392,6917.855,95.437,540.588,538.852,0.0
52491.0,STARLINK-3908,PAYLOAD,2024-05-16 16:47:12,15.08849905,0.0001128,53.2172,140.9103,97.8669,262.2452,2.4526e-05,1.03e-06,0.0,0 STARLINK-3908,1 52491U 22049AS  24137.69944607  .00000103  00000-0  24526-4 0  9997,2 52491  53.2172 140.9103 0001128  97.8669 262.2452 15.08849905112453,6917.85,95.437,540.495,538.935,0.0
52491.0,STARLINK-3908,PAYLOAD,2024-05-17 07:05:40,15.08845133,0.0001326,53.217,138.2367,92.2992,267.8152,7.934e-05,9.75e-06,0.0,0 STARLINK-3908,1 52491U 22049AS  24138.29560616  .00000975  00000-0  79340-4 0  9999,2 52491  53.2170 138.2367 0001326  92.2992 267.8152 15.08845133112706,6917.865,95.437,540.647,538.812,0.0
52491.0,STARLINK-3908,PAYLOAD,2024-05-17 16:37:59,15.08838943,0.0001358,53.2166,136.4516,90.3593,269.7555,-2.2677e-05,-6.49e-06,0.0,0 STARLINK-3908,1 52491U 22049AS  24138.69304910 -.00000649  00000-0 -22677-4 0  9997,2 52491  53.2166 136.4516 0001358  90.3593 269.7555 15.08838943112763,6917.884,95.438,540.688,538.809,0.0
52491.0,STARLINK-3908,PAYLOAD,2024-05-18 10:07:14,15.0884,0.0001433,53.2177,133.1813,98.3452,261.7702,8.1796e-05,1.014e-05,0.0,0 STARLINK-3908,1 52491U 22049AS  24139.42169110  .00001014  00000-0  81796-4 0  9992,2 52491  53.2177 133.1813 0001433  98.3452 261.7702 15.08840000112713,6917.88,95.438,540.737,538.754,0.0
52491.0,STARLINK-3908,PAYLOAD,2024-05-18 16:28:46,15.08838508,0.0001397,53.2179,131.9917,94.665,265.4502,5.6621e-05,6.13e-06,0.0,0 STARLINK-3908,1 52491U 22049AS  24139.68665316  .00000613  00000-0  56621-4 0  9992,2 52491  53.2179 131.9917 0001397  94.6650 265.4502 15.08838508112757,6917.885,95.438,540.716,538.784,0.0
52491.0,STARLINK-3908,PAYLOAD,2024-05-19 03:36:29,15.08836769,0.0001408,53.2181,129.9101,91.6622,268.4531,4.9316e-05,4.97e-06,0.0,0 STARLINK-3908,1 52491U 22049AS  24140.15033578  .00000497  00000-0  49316-4 0  9998,2 52491  53.2181 129.9101 0001408  91.6622 268.4531 15.08836769112988,6917.89,95.438,540.729,538.781,0.0
52491.0,STARLINK-3908,PAYLOAD,2024-05-19 06:47:15,15.08840181,0.0001374,53.2173,129.3147,93.5551,266.5598,4.4166e-05,4.15e-06,0.0,0 STARLINK-3908,1 52491U 22049AS  24140.28281364  .00000415  00000-0  44166-4 0  9998,2 52491  53.2173 129.3147 0001374  93.5551 266.5598 15.08840181112847,6917.88,95.438,540.695,538.794,0.0
52491.0,STARLINK-3908,PAYLOAD,2024-05-20 05:02:39,15.08838864,0.0001354,53.2172,125.1517,93.6221,266.4926,9.1249e-05,1.165e-05,0.0,0 STARLINK-3908,1 52491U 22049AS  24141.21017496  .00001165  00000-0  91249-4 0  9992,2 52491  53.2172 125.1517 0001354  93.6221 266.4926 15.08838864113147,6917.884,95.438,540.686,538.812,0.0
52491.0,STARLINK-3908,PAYLOAD,2024-05-20 06:38:02,15.08840885,0.0001442,53.2176,124.8539,91.5446,268.5711,0.00010226,1.34e-05,0.0,0 STARLINK-3908,1 52491U 22049AS  24141.27641371  .00001340  00000-0  10226-3 0  9993,2 52491  53.2176 124.8539 0001442  91.5446 268.5711 15.08840885112998,6917.878,95.437,540.74,538.745,0.0
52491.0,STARLINK-3908,PAYLOAD,2024-05-21 08:04:12,15.08820609,0.0001614,53.2177,120.0972,87.9599,272.1578,0.00039525,6.005e-05,0.0,0 STARLINK-3908,1 52491U 22049AS  24142.33625967  .00006005  00000-0  39525-3 0  9990,2 52491  53.2177 120.0972 0001614  87.9599 272.1578 15.08820609113318,6917.94,95.439,540.921,538.688,0.0
52491.0,STARLINK-3908,PAYLOAD,2024-05-22 04:44:14,15.08823179,0.0001848,53.219,116.222,143.2012,216.9107,1.9653e-05,2.5e-07,0.0,0 STARLINK-3908,1 52491U 22049AS  24143.19738993  .00000025  00000-0  19653-4 0  9996,2 52491  53.2190 116.2220 0001848 143.2012 216.9107 15.08823179113444,6917.932,95.439,541.075,538.518,0.0
52491.0,STARLINK-3908,PAYLOAD,2024-05-22 22:13:27,15.0885091,0.0001213,53.2177,112.9584,98.2396,261.8734,0.00012486,1.7e-05,0.0,0 STARLINK-3908,1 52491U 22049AS  24143.92600935  .00001700  00000-0  12486-3 0  9998,2 52491  53.2177 112.9584 0001213  98.2396 261.8734 15.08850910113397,6917.847,95.437,540.551,538.873,0.0
52491.0,STARLINK-3908,PAYLOAD,2024-05-23 04:34:58,15.08867896,0.0001789,53.2176,111.7708,106.5264,253.5924,0.00033414,5.038e-05,0.0,0 STARLINK-3908,1 52491U 22049AS  24144.19095086  .00005038  00000-0  33414-3 0  9995,2 52491  53.2176 111.7708 0001789 106.5264 253.5924 15.08867896113598,6917.795,95.436,540.898,538.423,0.0
52491.0,STARLINK-3908,PAYLOAD,2024-05-24 04:25:47,15.08834053,0.0001313,53.2177,107.3108,122.4309,237.6811,6.2998e-05,7.15e-06,0.0,0 STARLINK-3908,1 52491U 22049AS  24145.18457947  .00000715  00000-0  62998-4 0  9990,2 52491  53.2177 107.3108 0001313 122.4309 237.6811 15.08834053113748,6917.899,95.438,540.672,538.855,0.0
52491.0,STARLINK-3908,PAYLOAD,2024-05-24 07:36:33,15.08834517,0.00013,53.2175,106.7148,121.4758,238.6361,6.4872e-05,7.45e-06,0.0,0 STARLINK-3908,1 52491U 22049AS  24145.31705906  .00000745  00000-0  64872-4 0  9992,2 52491  53.2175 106.7148 0001300 121.4758 238.6361 15.08834517113607,6917.897,95.438,540.661,538.863,0.0
52491.0,STARLINK-3908,PAYLOAD,2024-05-24 21:55:02,15.08842569,0.0001785,53.2177,104.0358,133.0712,227.0429,-0.00028757,-4.862e-05,0.0,0 STARLINK-3908,1 52491U 22049AS  24145.91322513 -.00004862  00000-0 -28757-3 0  9994,2 52491  53.2177 104.0358 0001785 133.0712 227.0429 15.08842569113691,6917.873,95.437,540.972,538.503,0.0
52491.0,STARLINK-3908,PAYLOAD,2024-05-25 07:27:21,15.08842554,0.0001692,53.2179,102.2524,130.0613,230.0527,-0.00024739,-4.223e-05,0.0,0 STARLINK-3908,1 52491U 22049AS  24146.31066359 -.00004223  00000-0 -24739-3 0  9999,2 52491  53.2179 102.2524 0001692 130.0613 230.0527 15.08842554113914,6917.873,95.437,540.908,538.567,0.0
52491.0,STARLINK-3908,PAYLOAD,2024-05-25 13:48:53,15.08844609,0.0001159,53.218,101.0657,115.4211,244.6901,-0.00019213,-3.345e-05,0.0,0 STARLINK-3908,1 52491U 22049AS  24146.57561889 -.00003345  00000-0 -19213-3 0  9990,2 52491  53.2180 101.0657 0001159 115.4211 244.6901 15.08844609113795,6917.866,95.437,540.533,538.93,0.0
52491.0,STARLINK-3908,PAYLOAD,2024-05-26 07:18:08,15.08837109,0.0001205,53.2174,97.7939,122.9324,237.1784,9.8989e-05,1.288e-05,0.0,0 STARLINK-3908,1 52491U 22049AS  24147.30426102  .00001288  00000-0  98989-4 0  9990,2 52491  53.2174  97.7939 0001205 122.9324 237.1784 15.08837109113908,6917.889,95.438,540.588,538.921,0.0
52491.0,STARLINK-3908,PAYLOAD,2024-05-26 20:01:13,15.0883201,0.000114,53.2176,95.4152,112.1631,247.9482,0.000141,1.956e-05,0.0,0 STARLINK-3908,1 52491U 22049AS  24147.83418599  .00001956  00000-0  14100-3 0  9993,2 52491  53.2176  95.4152 0001140 112.1631 247.9482 15.08832010114149,6917.905,95.438,540.558,538.981,0.0
